{
    "links": {
        "self": "http://www.neowsapp.com/rest/v1/neo/3879318?api_key=iIulBulltgU6a56xZRHN4H3l9WmuAYTsLGpBGhQ2"
    },
    "id": "3879318",
    "neo_reference_id": "3879318",
    "name": "(2019 UU3)",
    "designation": "2019 UU3",
    "nasa_jpl_url": "http://ssd.jpl.nasa.gov/sbdb.cgi?sstr=3879318",
    "absolute_magnitude_h": 25.5,
    "estimated_diameter": {
        "kilometers": {
            "estimated_diameter_min": 0.0211132445,
            "estimated_diameter_max": 0.0472106499
        },
        "meters": {
            "estimated_diameter_min": 21.113244479,
            "estimated_diameter_max": 47.2106498806
        },
        "miles": {
            "estimated_diameter_min": 0.0131191578,
            "estimated_diameter_max": 0.0293353287
        },
        "feet": {
            "estimated_diameter_min": 69.2691770164,
            "estimated_diameter_max": 154.8905885541
        }
    },
    "is_potentially_hazardous_asteroid": false,
    "close_approach_data": [
        {
            "close_approach_date": "2019-11-02",
            "close_approach_date_full": "2019-Nov-02 23:45",
            "epoch_date_close_approach": 1572738300000,
            "relative_velocity": {
                "kilometers_per_second": "13.869499146",
                "kilometers_per_hour": "49930.1969257112",
                "miles_per_hour": "31024.6826397565"
            },
            "miss_distance": {
                "astronomical": "0.0340679637",
                "lunar": "13.2524378793",
                "kilometers": "5096494.804757319",
                "miles": "3166815.0245122422"
            },
            "orbiting_body": "Earth"
        },
        {
            "close_approach_date": "2065-11-02",
            "close_approach_date_full": "2065-Nov-02 13:06",
            "epoch_date_close_approach": 3024392760000,
            "relative_velocity": {
                "kilometers_per_second": "13.8387358075",
                "kilometers_per_hour": "49819.4489070961",
                "miles_per_hour": "30955.8681278565"
            },
            "miss_distance": {
                "astronomical": "0.0425040634",
                "lunar": "16.5340806626",
                "kilometers": "6358517.350984958",
                "miles": "3950999.4716221004"
            },
            "orbiting_body": "Earth"
        }
    ],
    "orbital_data": {
        "orbit_id": "4",
        "orbit_determination_date": "2020-09-11 07:45:10",
        "first_observation_date": "2019-10-19",
        "last_observation_date": "2019-10-31",
        "data_arc_in_days": 12,
        "observations_used": 30,
        "orbit_uncertainty": "8",
        "minimum_orbit_intersection": ".0311084",
        "jupiter_tisserand_invariant": "3.164",
        "epoch_osculation": "2458778.5",
        "eccentricity": ".6220113128883538",
        "semi_major_axis": "2.451845757888028",
        "inclination": "14.19273610177471",
        "ascending_node_longitude": "216.2832005015578",
        "orbital_period": "1402.2909966053",
        "perihelion_distance": ".926769959024355",
        "perihelion_argument": "224.2700568807889",
        "aphelion_distance": "3.976921556751701",
        "perihelion_time": "2458820.509983937516",
        "mean_anomaly": "349.2150814245279",
        "mean_motion": ".2567227493234263",
        "equinox": "J2000",
        "orbit_class": {
            "orbit_class_type": "APO",
            "orbit_class_description": "Near-Earth asteroid orbits which cross the Earth’s orbit similar to that of 1862 Apollo",
            "orbit_class_range": "a (semi-major axis) > 1.0 AU; q (perihelion) < 1.017 AU"
        }
    },
    "is_sentry_object": false
}